OBJECT_NAME,OBJECT_ID,EPOCH,MEAN_MOTION,ECCENTRICITY,INCLINATION,RA_OF_ASC_NODE,ARG_OF_PERICENTER,MEAN_ANOMALY,EPHEMERIS_TYPE,CLASSIFICATION_TYPE,NORAD_CAT_ID,ELEMENT_SET_NO,REV_AT_EPOCH,BSTAR,MEAN_MOTION_DOT,MEAN_MOTION_DDOT
GLOBALSTAR M069,2007-020C,2026-06-09T01:08:17.968416,12.23470934,.0002497,52.0042,275.1652,131.3715,44.3035,0,U,31573,999,87780,.26843E-4,-.9E-6,0
GLOBALSTAR M072,2007-020D,2026-06-09T03:45:26.866080,11.91658476,.0001386,51.9912,121.6244,309.6353,68.2651,0,U,31574,999,87402,.21106E-3,-.69E-6,0
GLOBALSTAR M066,2007-048C,2026-06-09T03:11:29.254272,12.30388535,.0005346,51.9592,81.0329,26.8687,114.8761,0,U,32265,999,85923,-.30916E-3,-.131E-5,0
GLOBALSTAR M079,2010-054A,2026-06-09T04:59:59.821728,12.62265983,.0000516,52.0018,132.9579,3.1477,14.7880,0,U,37188,999,72154,.8114E-4,-.89E-6,0
GLOBALSTAR M074,2010-054B,2026-06-09T02:08:48.347808,12.62268410,.0000358,51.9995,132.5860,45.1113,32.5017,0,U,37189,999,72213,.35166E-4,-.97E-6,0
GLOBALSTAR M076,2010-054C,2026-06-09T04:21:58.149792,12.62261827,.0000561,52.0008,132.5067,33.0301,345.2723,0,U,37190,999,72186,.53985E-4,-.94E-6,0
GLOBALSTAR M077,2010-054D,2026-06-08T20:16:46.341120,11.67547589,.0002863,51.9931,200.4708,157.6075,16.6937,0,U,37191,999,72016,-.26011E-4,-.79E-6,0
GLOBALSTAR M075,2010-054E,2026-06-09T04:59:59.558208,12.62267343,.0000038,51.9920,174.4871,143.7869,294.2926,0,U,37192,999,72093,.50151E-4,-.95E-6,0
GLOBALSTAR M073,2010-054F,2026-06-09T03:15:28.480320,12.62262133,.0000763,52.0060,88.8003,31.5254,75.2287,0,U,37193,999,72291,.15733E-4,-.101E-5,0
GLOBALSTAR M083,2011-033A,2026-06-08T23:45:37.671840,12.62262940,.0000837,51.9872,37.4841,54.9027,50.7380,0,U,37739,999,69191,.31788E-4,-.98E-6,0
GLOBALSTAR M088,2011-033B,2026-06-09T03:18:24.916032,12.62268590,.0000832,52.0228,303.4440,114.3972,61.2941,0,U,37740,999,68747,.63951E-4,-.92E-6,0
GLOBALSTAR M091,2011-033C,2026-06-09T01:43:24.995712,12.62263771,.0000503,52.0003,266.6218,138.9152,37.9257,0,U,37741,999,68825,.56107E-4,-.94E-6,0
GLOBALSTAR M085,2011-033D,2026-06-08T21:37:50.358720,12.62263938,.0000191,52.0111,218.4263,186.9189,354.6839,0,U,37742,999,68874,.40908E-4,-.96E-6,0
GLOBALSTAR M081,2011-033E,2026-06-08T12:22:38.064576,12.62264781,.00002393,51.9942,222.0459,129.7042,338.5925,0,U,37743,999,68884,.14916713E-4,-.101E-5,0
GLOBALSTAR M089,2011-033F,2026-06-08T19:22:45.427008,12.62267017,.0000366,51.9904,175.3175,102.0449,73.4621,0,U,37744,999,68972,.91012E-4,-.87E-6,0
GLOBALSTAR M084,2011-080A,2026-06-08T23:36:01.999008,12.62267502,.0001028,52.0026,42.2573,73.5961,121.5034,0,U,38040,999,66772,.66543E-5,-.103E-5,0
GLOBALSTAR M080,2011-080B,2026-06-09T00:21:19.234944,12.62269284,.0000294,52.0076,43.8768,67.4576,40.6215,0,U,38041,999,66785,.264E-4,-.99E-6,0
GLOBALSTAR M082,2011-080C,2026-06-08T20:30:01.909728,12.62269913,.0000544,52.0098,359.8658,87.6948,300.3065,0,U,38042,999,66854,.75286E-4,-.9E-6,0
GLOBALSTAR M092,2011-080D,2026-06-09T01:31:32.557728,12.62266890,.0000552,52.0085,89.6245,52.5106,326.4006,0,U,38043,999,66702,.52142E-4,-.94E-6,0
GLOBALSTAR M090,2011-080E,2026-06-08T17:37:03.329184,12.62269016,.0000803,52.0144,354.1848,80.8408,359.9677,0,U,38044,999,66864,.74584E-4,-.9E-6,0
GLOBALSTAR M086,2011-080F,2026-06-08T20:44:46.999104,12.62286593,.0001634,51.9915,353.7315,53.0337,160.8893,0,U,38045,999,66860,.1127E-3,-.84E-6,0
GLOBALSTAR M097,2013-005A,2026-06-09T00:09:47.298816,12.62247134,.0000449,52.0055,268.2379,121.9947,238.0963,0,U,39072,999,61587,-.40877E-4,-.111E-5,0
GLOBALSTAR M093,2013-005B,2026-06-08T14:01:15.801024,12.62265735,.00003211,52.0110,262.8678,107.2155,252.8747,0,U,39073,999,61577,.76949866E-4,-.9E-6,0
GLOBALSTAR M094,2013-005C,2026-06-08T08:19:04.477440,12.62268544,.00001857,51.9930,177.7168,332.5307,27.5550,0,U,39074,999,61735,.53822641E-4,-.94E-6,0
GLOBALSTAR M096,2013-005D,2026-06-09T03:38:41.859168,12.62265432,.0000183,52.0059,224.0607,164.0822,196.0051,0,U,39075,999,61637,.64666E-4,-.92E-6,0
GLOBALSTAR M078,2013-005E,2026-06-09T02:59:46.993344,12.62259231,.0000588,51.9893,308.1620,197.5024,162.5822,0,U,39076,999,61499,-.28607E-3,-.155E-5,0
GLOBALSTAR M095,2013-005F,2026-06-09T03:38:20.290272,12.62263356,.0000374,52.0095,305.6732,122.4421,237.6482,0,U,39077,999,61485,.38663E-4,-.97E-6,0
GLOBALSTAR M087,2022-064A,2026-06-09T02:03:25.985952,12.62268960,.0000592,51.9997,87.1163,19.9401,340.1489,0,U,52888,999,19011,.58463E-4,-.93E-6,0
